{"type": "FeatureCollection", "features": [{"type": "Feature", "properties": {"norad_id": 37846, "name": "GSAT0101 (GALILEO-PFM)", "group": "galileo", "lat": -39.50965589700517, "lon": -45.887720019886274, "alt_km": 23217.254285131286, "timestamp": "2025-12-26T07:29:18.718544+00:00", "meta": {"OBJECT_NAME": "GSAT0101 (GALILEO-PFM)", "OBJECT_ID": "2011-060A", "EPOCH": "2025-12-24T15:10:54.850656", "MEAN_MOTION": 1.70475643, "ECCENTRICITY": 0.00032614, "INCLINATION": 57.05, "RA_OF_ASC_NODE": 346.4975, "ARG_OF_PERICENTER": 321.0017, "MEAN_ANOMALY": 38.9828, "EPHEMERIS_TYPE": 0, "CLASSIFICATION_TYPE": "U", "NORAD_CAT_ID": 37846, "ELEMENT_SET_NO": 999, "REV_AT_EPOCH": 8814, "BSTAR": 0, "MEAN_MOTION_DOT": -6.1e-07, "MEAN_MOTION_DDOT": 0}, "tle": {"line1": "1 37846U 11060A   25358.63257929 -.00000061  00000+0  00000+0 0  9998", "line2": "2 37846  57.0500 346.4975 0003261 321.0017  38.9828  1.70475643 88147"}}, "geometry": {"type": "Point", "coordinates": [-45.887720019886274, -39.50965589700517]}}, {"type": "Feature", "properties": {"norad_id": 37847, "name": "GSAT0102 (GALILEO-FM2)", "group": "galileo", "lat": -3.1843526333577734, "lon": -15.62581909262145, "alt_km": 23211.533513888302, "timestamp": "2025-12-26T07:29:18.718568+00:00", "meta": {"OBJECT_NAME": "GSAT0102 (GALILEO-FM2)", "OBJECT_ID": "2011-060B", "EPOCH": "2025-12-22T11:58:40.586304", "MEAN_MOTION": 1.70475957, "ECCENTRICITY": 0.00051595, "INCLINATION": 57.0512, "RA_OF_ASC_NODE": 346.5558, "ARG_OF_PERICENTER": 313.0615, "MEAN_ANOMALY": 223.0229, "EPHEMERIS_TYPE": 0, "CLASSIFICATION_TYPE": "U", "NORAD_CAT_ID": 37847, "ELEMENT_SET_NO": 999, "REV_AT_EPOCH": 8811, "BSTAR": 0, "MEAN_MOTION_DOT": -6.5e-07, "MEAN_MOTION_DDOT": 0}, "tle": {"line1": "1 37847U 11060B   25356.49908086 -.00000065  00000+0  00000+0 0  9992", "line2": "2 37847  57.0512 346.5558 0005159 313.0615 223.0229  1.70475957 88119"}}, "geometry": {"type": "Point", "coordinates": [-15.62581909262145, -3.1843526333577734]}}, {"type": "Feature", "properties": {"norad_id": 38857, "name": "GSAT0103 (GALILEO-FM3)", "group": "galileo", "lat": -52.57763871696991, "lon": 43.31429453698366, "alt_km": 23219.502681804704, "timestamp": "2025-12-26T07:29:18.718583+00:00", "meta": {"OBJECT_NAME": "GSAT0103 (GALILEO-FM3)", "OBJECT_ID": "2012-055A", "EPOCH": "2025-12-22T21:54:43.252704", "MEAN_MOTION": 1.70473351, "ECCENTRICITY": 0.0002995, "INCLINATION": 55.698, "RA_OF_ASC_NODE": 106.3873, "ARG_OF_PERICENTER": 269.858, "MEAN_ANOMALY": 90.0891, "EPHEMERIS_TYPE": 0, "CLASSIFICATION_TYPE": "U", "NORAD_CAT_ID": 38857, "ELEMENT_SET_NO": 999, "REV_AT_EPOCH": 8200, "BSTAR": 0, "MEAN_MOTION_DOT": 1e-07, "MEAN_MOTION_DDOT": 0}, "tle": {"line1": "1 38857U 12055A   25356.91300061  .00000010  00000+0  00000+0 0  9994", "line2": "2 38857  55.6980 106.3873 0002995 269.8580  90.0891  1.70473351 82005"}}, "geometry": {"type": "Point", "coordinates": [43.31429453698366, -52.57763871696991]}}, {"type": "Feature", "properties": {"norad_id": 40128, "name": "GSAT0201 (GALILEO 5)", "group": "galileo", "lat": -32.232595802265116, "lon": -112.62448977322808, "alt_km": 24933.475433650692, "timestamp": "2025-12-26T07:29:18.718597+00:00", "meta": {"OBJECT_NAME": "GSAT0201 (GALILEO 5)", "OBJECT_ID": "2014-050A", "EPOCH": "2025-12-24T05:54:59.332320", "MEAN_MOTION": 1.85519669, "ECCENTRICITY": 0.16490328, "INCLINATION": 49.0634, "RA_OF_ASC_NODE": 280.5946, "ARG_OF_PERICENTER": 172.7103, "MEAN_ANOMALY": 190.0774, "EPHEMERIS_TYPE": 0, "CLASSIFICATION_TYPE": "U", "NORAD_CAT_ID": 40128, "ELEMENT_SET_NO": 999, "REV_AT_EPOCH": 7507, "BSTAR": 0, "MEAN_MOTION_DOT": -3.7e-07, "MEAN_MOTION_DDOT": 0}, "tle": {"line1": "1 40128U 14050A   25358.24652005 -.00000037  00000+0  00000+0 0  9991", "line2": "2 40128  49.0634 280.5946 1649032 172.7103 190.0774  1.85519669 75070"}}, "geometry": {"type": "Point", "coordinates": [-112.62448977322808, -32.232595802265116]}}, {"type": "Feature", "properties": {"norad_id": 40129, "name": "GSAT0202 (GALILEO 6)", "group": "galileo", "lat": 42.78347291252746, "lon": 46.29294463036437, "alt_km": 18613.12608668664, "timestamp": "2025-12-26T07:29:18.718610+00:00", "meta": {"OBJECT_NAME": "GSAT0202 (GALILEO 6)", "OBJECT_ID": "2014-050B", "EPOCH": "2025-12-23T23:07:46.341984", "MEAN_MOTION": 1.85520106, "ECCENTRICITY": 0.16495716, "INCLINATION": 49.08, "RA_OF_ASC_NODE": 279.6897, "ARG_OF_PERICENTER": 173.4584, "MEAN_ANOMALY": 189.053, "EPHEMERIS_TYPE": 0, "CLASSIFICATION_TYPE": "U", "NORAD_CAT_ID": 40129, "ELEMENT_SET_NO": 999, "REV_AT_EPOCH": 7723, "BSTAR": 0, "MEAN_MOTION_DOT": -3.5e-07, "MEAN_MOTION_DDOT": 0}, "tle": {"line1": "1 40129U 14050B   25357.96373081 -.00000035  00000+0  00000+0 0  9992", "line2": "2 40129  49.0800 279.6897 1649571 173.4584 189.0530  1.85520106 77235"}}, "geometry": {"type": "Point", "coordinates": [46.29294463036437, 42.78347291252746]}}, {"type": "Feature", "properties": {"norad_id": 40544, "name": "GSAT0203 (GALILEO 7)", "group": "galileo", "lat": 56.69903962676137, "lon": 70.59559213551007, "alt_km": 23234.415303312133, "timestamp": "2025-12-26T07:29:18.718622+00:00", "meta": {"OBJECT_NAME": "GSAT0203 (GALILEO 7)", "OBJECT_ID": "2015-017A", "EPOCH": "2025-12-24T23:56:01.378752", "MEAN_MOTION": 1.70475851, "ECCENTRICITY": 0.000645, "INCLINATION": 56.8433, "RA_OF_ASC_NODE": 346.3459, "ARG_OF_PERICENTER": 275.4973, "MEAN_ANOMALY": 84.4372, "EPHEMERIS_TYPE": 0, "CLASSIFICATION_TYPE": "U", "NORAD_CAT_ID": 40544, "ELEMENT_SET_NO": 999, "REV_AT_EPOCH": 6623, "BSTAR": 0, "MEAN_MOTION_DOT": -6.1e-07, "MEAN_MOTION_DDOT": 0}, "tle": {"line1": "1 40544U 15017A   25358.99723818 -.00000061  00000+0  00000+0 0  9997", "line2": "2 40544  56.8433 346.3459 0006450 275.4973  84.4372  1.70475851 66237"}}, "geometry": {"type": "Point", "coordinates": [70.59559213551007, 56.69903962676137]}}, {"type": "Feature", "properties": {"norad_id": 40545, "name": "GSAT0204 (GALILEO 8)", "group": "galileo", "lat": -51.83379720373578, "lon": -69.92624093479006, "alt_km": 23211.02396158506, "timestamp": "2025-12-26T07:29:18.718635+00:00", "meta": {"OBJECT_NAME": "GSAT0204 (GALILEO 8)", "OBJECT_ID": "2015-017B", "EPOCH": "2025-12-20T13:26:28.826304", "MEAN_MOTION": 1.70475697, "ECCENTRICITY": 0.0006133, "INCLINATION": 56.8522, "RA_OF_ASC_NODE": 346.4847, "ARG_OF_PERICENTER": 266.5447, "MEAN_ANOMALY": 93.3948, "EPHEMERIS_TYPE": 0, "CLASSIFICATION_TYPE": "U", "NORAD_CAT_ID": 40545, "ELEMENT_SET_NO": 999, "REV_AT_EPOCH": 2920, "BSTAR": 0, "MEAN_MOTION_DOT": -7e-07, "MEAN_MOTION_DDOT": 0}, "tle": {"line1": "1 40545U 15017B   25354.56005586 -.00000070  00000+0  00000+0 0  9992", "line2": "2 40545  56.8522 346.4847 0006133 266.5447  93.3948  1.70475697 29206"}}, "geometry": {"type": "Point", "coordinates": [-69.92624093479006, -51.83379720373578]}}, {"type": "Feature", "properties": {"norad_id": 40889, "name": "GSAT0205 (GALILEO 9)", "group": "galileo", "lat": 51.26425633144292, "lon": -72.76825280966573, "alt_km": 23200.22737696768, "timestamp": "2025-12-26T07:29:18.718672+00:00", "meta": {"OBJECT_NAME": "GSAT0205 (GALILEO 9)", "OBJECT_ID": "2015-045A", "EPOCH": "2025-12-23T06:16:38.782272", "MEAN_MOTION": 1.70473104, "ECCENTRICITY": 0.00062228, "INCLINATION": 55.0001, "RA_OF_ASC_NODE": 226.4673, "ARG_OF_PERICENTER": 42.5636, "MEAN_ANOMALY": 317.5856, "EPHEMERIS_TYPE": 0, "CLASSIFICATION_TYPE": "U", "NORAD_CAT_ID": 40889, "ELEMENT_SET_NO": 999, "REV_AT_EPOCH": 6401, "BSTAR": 0, "MEAN_MOTION_DOT": 7.3e-07, "MEAN_MOTION_DDOT": 0}, "tle": {"line1": "1 40889U 15045A   25357.26155998  .00000073  00000+0  00000+0 0  9999", "line2": "2 40889  55.0001 226.4673 0006222  42.5636 317.5856  1.70473104 64013"}}, "geometry": {"type": "Point", "coordinates": [-72.76825280966573, 51.26425633144292]}}, {"type": "Feature", "properties": {"norad_id": 40890, "name": "GSAT0206 (GALILEO 10)", "group": "galileo", "lat": -47.010342939119354, "lon": 177.6741143987437, "alt_km": 23230.72070282141, "timestamp": "2025-12-26T07:29:18.718685+00:00", "meta": {"OBJECT_NAME": "GSAT0206 (GALILEO 10)", "OBJECT_ID": "2015-045B", "EPOCH": "2025-12-25T05:48:23.394816", "MEAN_MOTION": 1.7047315, "ECCENTRICITY": 0.0004109, "INCLINATION": 54.9985, "RA_OF_ASC_NODE": 226.4076, "ARG_OF_PERICENTER": 41.5093, "MEAN_ANOMALY": 318.6128, "EPHEMERIS_TYPE": 0, "CLASSIFICATION_TYPE": "U", "NORAD_CAT_ID": 40890, "ELEMENT_SET_NO": 999, "REV_AT_EPOCH": 6407, "BSTAR": 0, "MEAN_MOTION_DOT": 7e-07, "MEAN_MOTION_DDOT": 0}, "tle": {"line1": "1 40890U 15045B   25359.24193744  .00000070  00000+0  00000+0 0  9999", "line2": "2 40890  54.9985 226.4076 0004109  41.5093 318.6128  1.70473150 64070"}}, "geometry": {"type": "Point", "coordinates": [177.6741143987437, -47.010342939119354]}}, {"type": "Feature", "properties": {"norad_id": 41174, "name": "GSAT0209 (GALILEO 12)", "group": "galileo", "lat": -11.216298444918294, "lon": -66.22879421237394, "alt_km": 23230.247112589677, "timestamp": "2025-12-26T07:29:18.718696+00:00", "meta": {"OBJECT_NAME": "GSAT0209 (GALILEO 12)", "OBJECT_ID": "2015-079A", "EPOCH": "2025-12-21T21:22:17.332896", "MEAN_MOTION": 1.70474556, "ECCENTRICITY": 0.00025231, "INCLINATION": 55.7178, "RA_OF_ASC_NODE": 106.13, "ARG_OF_PERICENTER": 342.7574, "MEAN_ANOMALY": 17.2091, "EPHEMERIS_TYPE": 0, "CLASSIFICATION_TYPE": "U", "NORAD_CAT_ID": 41174, "ELEMENT_SET_NO": 999, "REV_AT_EPOCH": 6175, "BSTAR": 0, "MEAN_MOTION_DOT": 5e-08, "MEAN_MOTION_DDOT": 0}, "tle": {"line1": "1 41174U 15079A   25355.89047839  .00000005  00000+0  00000+0 0  9990", "line2": "2 41174  55.7178 106.1300 0002523 342.7574  17.2091  1.70474556 61755"}}, "geometry": {"type": "Point", "coordinates": [-66.22879421237394, -11.216298444918294]}}]}